#aV2019 11  5  0  0  0.00000000     288 DD+AD WGS84 FIT  NGA
## 2078 172800.00000000   300.00000000 58792 0.0000000000000
+   32     1  2  3  4  5  6  7  8  9 10 11 12 13 14 15 16 17
+         18 19 20 21 22 23 24 25 26 27 28 29 30 31 32  0  0
+          0  0  0  0  0  0  0  0  0  0  0  0  0  0  0  0  0
+          0  0  0  0  0  0  0  0  0  0  0  0  0  0  0  0  0
+          0  0  0  0  0  0  0  0  0  0  0  0  0  0  0  0  0
++         2  2  2  2  2  2  2  2  2  2  2  2  2  2  2  2  2
++         2  2  2  2  2  2  2  2  2  2  2  2  2  2  2  0  0
++         0  0  0  0  0  0  0  0  0  0  0  0  0  0  0  0  0
++         0  0  0  0  0  0  0  0  0  0  0  0  0  0  0  0  0
++         0  0  0  0  0  0  0  0  0  0  0  0  0  0  0  0  0
%c cc cc ccc ccc cccc cccc cccc cccc ccccc ccccc ccccc ccccc
%c cc cc ccc ccc cccc cccc cccc cccc ccccc ccccc ccccc ccccc
%f  0.0000000  0.000000000  0.00000000000  0.000000000000000
%f  0.0000000  0.000000000  0.00000000000  0.000000000000000
%i    0    0    0    0      0      0      0      0         0
%i    0    0    0    0      0      0      0      0         0
/*      NGA, ST. LOUIS,MO.                                  
/*   EPHEMERIS COMPUTED FROM 2 DAYS OF DATA                 
/*   EPOCHA v5 SMOOTHER                                     
/*   G1762 IERS2010 SATAF SATAPC                            
*  2019 11  5  9 15  0.00000000
P  1  17448.798509   6158.933972  18971.027635   -186.867502                    
V  1  10086.659747  22204.038701 -16004.447311     -0.128276                    
P  2 -14380.826571 -22334.374112  -1181.076082   -340.474411                    
V  2   1306.051842  -3398.012260  31545.823722     -0.077570                    
P  3  18745.281298  -6612.656682  17513.571767    -32.087326                    
V  3 -10715.258753  19723.647131  18937.133295     -0.055017                    
P  4  16450.976562 -11031.919524 -17597.360390     -5.887740                    
V  4  22282.337357   3513.056648  18601.430729     -0.037109                    
P  5  -9692.061433 -13080.529976 -21088.537343     -3.086923                    
V  5  14424.842309 -22290.499950   7436.805083     -0.004364                    
P  6  -4335.755271 -23969.484114  10602.837917   -113.771261                    
V  6   7935.174242  10961.888534  28167.968497     -0.122144                    
P  7  11123.828218 -11114.821909 -21059.742513   -142.171020                    
V  7  13001.637607  24244.708222  -6319.034540     -0.080852                    
P  8  24996.044435   5818.490371  -7228.963601    -12.316335                    
V  8  -9233.632179   1892.536174 -30046.113881     -0.012579                    
P  9  21924.318056  -8215.720508 -12598.102025    -75.361082                    
V  9  15836.960067   3028.279854  25682.734604     -0.098584                    
P 10 -10381.876890  23637.893045   5775.935954   -122.391893                    
V 10  -6303.100645   4627.905722 -30820.554785     -0.149978                    
P 11  22535.973804   4781.743113  12440.558649   -457.249657                    
V 11  11195.949879  13171.693876 -24663.258902      0.111894                    
P 12 -17188.202247    660.208437  19973.955237    186.750756                    
V 12  14629.173577 -21320.610462  13310.487322     -0.039499                    
P 13 -18790.408332 -12930.845148 -13787.178257    -34.701646                    
V 13  17337.878809   1082.423067 -24790.998882      0.022789                    
P 14   6051.545121  15586.719002  21003.320137    -52.237912                    
V 14 -25761.085264  -2621.218080   9334.610241      0.021118                    
P 15 -25719.367705  -3725.589630  -6689.022427   -274.860930                    
V 15   7895.397237  -3682.187732 -29223.758083      0.027010                    
P 16   6217.357302  15020.763057 -21098.065878    -90.116138                    
V 16 -16852.186239  20337.516358  10026.735848     -0.037049                    
P 17   5722.307943 -14181.963120  22128.472699    157.272552                    
V 17  26851.679289   3134.756723  -5107.874530      0.070310                    
P 18  18471.900075  13729.050119  12834.059965     98.026915                    
V 18   6474.806816  16008.926650 -25357.764694      0.026426                    
P 19  -2190.373806 -14896.469213  21583.073488   -244.021098                    
V 19  27795.628792   3810.226417   5397.166930      0.052015                    
P 20 -14572.496848  21479.808882  -5228.422142    527.389467                    
V 20   -567.929229  -7561.932061 -30263.506856      0.000999                    
P 21  -6985.679440  15605.187737 -19590.747576    -91.020853                    
V 21 -14693.964281 -22222.049022 -11792.574247      0.060400                    
P 22  16855.729407   1339.574649  20681.752260   -769.456669                    
V 22 -11411.629890  23294.102530   7973.558830     -0.027627                    
P 23  26584.960581  -1150.810804  -2592.813636   -157.361712                    
V 23   3593.294289   3137.649176  30890.050399      0.022209                    
P 24 -18923.662539  -7528.072563  17057.301935     -4.485636                    
V 24  -9394.853357 -19911.486222 -18666.967587     -0.005429                    
P 25 -18671.416444  15108.222151  10832.496390    -16.746375                    
V 25   5598.236563 -13240.153508  27827.224875     -0.005502                    
P 26   -620.186110  21821.060632 -15007.794269     77.367728                    
V 26 -11962.365855  15133.754972  22717.000840      0.084394                    
P 27  16731.369889  12189.990620 -16928.716091   -110.109401                    
V 27 -21150.534892    233.073354 -20576.029086     -0.120006                    
P 28  11567.274085 -22959.037797   7513.174616    756.360098                    
V 28   6829.249278  -5674.862588 -30208.847665     -0.014079                    
P 29 -23298.279561   5115.934704 -11739.551903     52.459913                    
V 29 -14517.383230  -3383.837256  27383.536871     -0.100631                    
P 30   3172.407393 -20847.897502 -15999.240564    -77.034816                    
V 30  10878.718725  17559.797120 -20875.828900     -0.083480                    
P 31   5203.348071  24410.675785   8362.661960     -1.099782                    
V 31  -7384.680940  -8410.880201  29534.851482     -0.025543                    
P 32  -4853.701595  14938.258734  21463.797765    114.934835                    
V 32 -27097.932135  -1651.014782  -5119.902113      0.123882                    
EOF
